[{"OBJECT_NAME":"STARLINK-6040","OBJECT_ID":"2023-078AU","EPOCH":"2026-03-09T21:18:16.576704","MEAN_MOTION":14.98329487,"ECCENTRICITY":0.00025315,"INCLINATION":70.001,"RA_OF_ASC_NODE":343.8081,"ARG_OF_PERICENTER":263.0396,"MEAN_ANOMALY":97.0475,"EPHEMERIS_TYPE":0,"CLASSIFICATION_TYPE":"U","NORAD_CAT_ID":56809,"ELEMENT_SET_NO":999,"REV_AT_EPOCH":15271,"BSTAR":-4.3575538e-5,"MEAN_MOTION_DOT":-6.13e-6,"MEAN_MOTION_DDOT":0},{"OBJECT_NAME":"FENGYUN 1C DEB","OBJECT_ID":"1999-025XU","EPOCH":"2026-03-09T14:41:45.749184","MEAN_MOTION":14.51911005,"ECCENTRICITY":0.0242057,"INCLINATION":98.7565,"RA_OF_ASC_NODE":289.113,"ARG_OF_PERICENTER":5.0676,"MEAN_ANOMALY":56.028,"EPHEMERIS_TYPE":0,"CLASSIFICATION_TYPE":"U","NORAD_CAT_ID":30259,"ELEMENT_SET_NO":999,"REV_AT_EPOCH":734,"BSTAR":0.00035048,"MEAN_MOTION_DOT":2.01e-5,"MEAN_MOTION_DDOT":0}]
